GLOBALSTAR M045 [-]     
1 25676U 99019A   23298.91882604 -.00000116  00000+0 -19846-3 0  9996
2 25676  51.9964 216.0995 0001503  78.2277 357.5721 12.27017933119709
GLOBALSTAR M044 [-]     
1 25678U 99019C   23298.97163721 -.00000031  00000+0  73798-3 0  9997
2 25678  51.9952 180.3694 0006208 330.1243  43.4270 11.90225652 99858
GLOBALSTAR M042 [-]     
1 25679U 99019D   23298.50066042 -.00000065  00000+0  25941-3 0  9999
2 25679  52.0017 306.6576 0003156 137.7766  32.7354 12.22049335111818
GLOBALSTAR M025 [-]     
1 25770U 99031A   23298.96539448 -.00000049  00000+0  57045-3 0  9992
2 25770  51.9785 109.7144 0001022 165.9354 274.7172 11.22546734414309
GLOBALSTAR M049 [-]     
1 25771U 99031B   23298.57564009  .00000012  00000+0  26786-2 0  9997
2 25771  51.9838 115.1962 0003861  88.3406 271.7833 11.12102097 50606
GLOBALSTAR M047 [-]     
1 25772U 99031C   23298.03629437 -.00000055  00000+0  38898-3 0  9992
2 25772  51.9809 170.8228 0015791 314.1674  45.7834 11.31916584403034
GLOBALSTAR M052 [-]     
1 25773U 99031D   23298.07614218 -.00000087  00000+0 -71340-3 0  9993
2 25773  51.9858 233.4550 0001854 268.9995 178.1175 11.15046599411456
